DMSP 5D-2 F14 (USA 131) 
1 24753U 97012A   19068.61091086  .00000019  00000-0  33115-4 0  9992
2 24753  99.0329  74.1367 0009784  86.5180 273.7112 14.15824814132545
NOAA 15                 
1 25338U 98030A   19068.58122619 -.00000002  00000-0  17741-4 0  9996
2 25338  98.7559  89.9846 0010681 171.2409 188.8959 14.25897236 82847
DMSP 5D-3 F15 (USA 147) 
1 25991U 99067A   19068.65908566 -.00000094  00000-0 -24783-4 0  9999
2 25991  98.9051  33.1725 0009849 352.2603   4.5472 14.16535844994490
METEOSAT-8 (MSG-1)      
1 27509U 02040B   19068.60234201  .00000136  00000-0  00000+0 0  9990
2 27509   5.9191  55.9656 0001775 319.7290  49.8762  1.00282798 60613
DMSP 5D-3 F16 (USA 172) 
1 28054U 03048A   19068.65078705 -.00000091  00000-0 -25082-4 0  9999
2 28054  98.8550  45.8057 0008482 102.2202 255.0519 14.13697574794077
NOAA 18                 
1 28654U 05018A   19068.61883654  .00000065  00000-0  60012-4 0  9998
2 28654  99.1108 114.0049 0015266 102.0398 258.2485 14.12408346711250
METEOSAT-9 (MSG-2)      
1 28912U 05049B   19068.59466525  .00000014  00000-0  00000+0 0  9990
2 28912   3.4577  71.4274 0000744 338.1056 334.7910  1.00270420 48438
HIMAWARI-7 (MTSAT-2)    
1 28937U 06004A   19067.99146419 -.00000249  00000-0  00000+0 0  9990
2 28937   0.0461 291.4184 0003563  54.1915 322.6789  1.00274392 47706
FORMOSAT-3 FM6          
1 29047U 06011A   19067.74216003  .00000075  00000-0  45561-4 0  9993
2 29047  71.9808 342.5054 0049645 148.8693 211.5402 14.28667281674688
FORMOSAT-3 FM1          
1 29048U 06011B   19068.51806512  .00000012  00000-0  21060-4 0  9999
2 29048  71.9647 252.3755 0042324 102.9951 257.5916 14.28616938677261
FORMOSAT-3 FM5          
1 29049U 06011C   19068.19565459  .00000047  00000-0  34690-4 0  9997
2 29049  72.0197  62.0398 0033586 136.8667 223.5110 14.28700694673003
FORMOSAT-3 FM3          
1 29050U 06011D   19068.61285811  .00000169  00000-0  46005-4 0  9995
2 29050  72.0137 254.8397 0048227  91.6350 269.0327 14.58771473688494
FORMOSAT-3 FM4          
1 29051U 06011E   19067.71487757  .00000089  00000-0  50627-4 0  9995
2 29051  72.0070 325.9571 0067825  10.4568 349.7960 14.28727370675523
FORMOSAT-3 FM2          
1 29052U 06011F   19067.39708532 -.00000006  00000-0  13520-4 0  9998
2 29052  72.0351  39.4129 0038076  96.6023 263.9450 14.28825100673800
GOES 13                 
1 29155U 06018A   19068.51022093 -.00000289  00000-0  00000+0 0  9992
2 29155   0.4331 283.1533 0011388 136.8178 230.6102  1.00278547 46878
METOP-A                 
1 29499U 06044A   19068.87781250 -.00000002  00000-0  18487-4 0  9994
2 29499  98.5888 124.8618 0001835 124.5333 235.9627 14.21543792642744
DMSP 5D-3 F17 (USA 191) 
1 29522U 06050A   19068.59910925  .00000003  00000-0  24763-4 0  9994
2 29522  98.8268  86.3796 0011070  65.7792 294.4537 14.14002837636905
FENGYUN 3A              
1 32958U 08026A   19068.84694205  .00000007  00000-0  22585-4 0  9998
2 32958  98.3798  74.5940 0008331 245.9776 114.0531 14.19733509558811
FENGYUN 2E              
1 33463U 08066A   19068.82672231 -.00000206  00000-0  00000+0 0  9992
2 33463   3.3959  69.2505 0004443 264.8798 217.4950  1.00270980 37450
NOAA 19                 
1 33591U 09005A   19068.59593558  .00000038  00000-0  45857-4 0  9992
2 33591  99.1738  57.3068 0013163 304.6150  55.3778 14.12337962519639
GOES 14                 
1 35491U 09033A   19068.56001944 -.00000098  00000-0  00000+0 0  9997
2 35491   0.0574 110.3878 0008612 131.6104  22.2164  1.00271796 35515
METEOR-M 1              
1 35865U 09049A   19068.85159993  .00000015  00000-0  25291-4 0  9991
2 35865  98.4108  71.6188 0003505 103.1578 256.9991 14.22186649491747
DMSP 5D-3 F18 (USA 210) 
1 35951U 09057A   19068.60187294  .00000011  00000-0  28569-4 0  9991
2 35951  98.6186  70.0216 0009962 257.3501 102.6558 14.13177423484206
GOES 15                 
1 36411U 10008A   19068.60014191  .00000050  00000-0  00000+0 0  9994
2 36411   0.0188 200.9689 0002115  67.2655 346.4084  1.00272524 33039
COMS 1                  
1 36744U 10032A   19068.83492250 -.00000349  00000-0  00000+0 0  9993
2 36744   0.0083 168.2547 0000632 242.1529 185.5403  1.00271686 32019
FENGYUN 3B              
1 37214U 10059A   19068.81176813 -.00000014  00000-0  15792-4 0  9995
2 37214  98.9869  39.9065 0017402 143.7363 216.4995 14.15908455431782
SUOMI NPP               
1 37849U 11061A   19068.48744993 -.00001334  00000-0 -61220-3 0  9999
2 37849  98.7284   8.0898 0001481  99.4569 260.6668 14.19554962381518
FENGYUN 2F              
1 38049U 12002A   19068.54459185 -.00000362  00000-0  00000+0 0  9995
2 38049   1.0231  80.7433 0001792  65.5763 328.8538  1.00277594 26256
METEOSAT-10 (MSG-3)     
1 38552U 12035B   19068.59579934  .00000056  00000-0  00000+0 0  9999
2 38552   0.9919  11.8340 0000645  45.1630 333.6425  1.00274314 24581
METOP-B                 
1 38771U 12049A   19068.87991634 -.00000007  00000-0  16950-4 0  9996
2 38771  98.7169 129.5526 0000552 165.3664 313.5307 14.21482649335870
FENGYUN 3C              
1 39260U 13052A   19067.86148513 -.00000002  00000-0  20457-4 0  9995
2 39260  98.6170 130.1538 0012208 114.4570 245.7879 14.15862096282599
METEOR-M 2              
1 40069U 14037A   19068.79366863 -.00000020  00000-0  10604-4 0  9994
2 40069  98.5660 117.3120 0005558 177.2667 182.8531 14.20659582242096
HIMAWARI-8              
1 40267U 14060A   19068.87257149 -.00000281  00000-0  00000+0 0  9998
2 40267   0.0019 184.8626 0001086 163.0542 274.1207  1.00271214 16224
FENGYUN 2G              
1 40367U 14090A   19067.89593983 -.00000306  00000-0  00000-0 0  9991
2 40367   1.0058 103.7162 0002965 297.4276 187.2403  1.00265269 15399
METEOSAT-11 (MSG-4)     
1 40732U 15034A   19068.59396737 -.00000010  00000-0  00000+0 0  9993
2 40732   0.9295 224.4673 0001067  97.8597  58.2775  1.00267680 13402
ELEKTRO-L 2             
1 41105U 15074A   19068.17828839 -.00000102  00000-0  00000+0 0  9991
2 41105   0.1298 133.6421 0001819 255.2613 277.8710  1.00271871 11872
HIMAWARI-9              
1 41836U 16064A   19068.23711236 -.00000280  00000-0  00000+0 0  9998
2 41836   0.0320 280.0026 0000894  47.0964  65.6380  1.00274363  8662
GOES 16                 
1 41866U 16071A   19068.57896280 -.00000254  00000-0  00000+0 0  9990
2 41866   0.0534 309.6498 0000513  84.5450 265.9858  1.00271605  8477
FENGYUN 4A              
1 41882U 16077A   19068.54310884 -.00000335  00000-0  00000+0 0  9992
2 41882   0.1273  90.4107 0004274  21.7865 354.8993  1.00268326  8349
CYGFM05                 
1 41884U 16078A   19068.02476118  .00000323  00000-0  18931-4 0  9994
2 41884  34.9567  76.6144 0016193 203.1172 156.8811 15.14322407123358
CYGFM04                 
1 41885U 16078B   19067.42685395  .00000352  00000-0  20178-4 0  9995
2 41885  34.9499  76.0344 0014541 203.7861 156.2179 15.14828577123300
CYGFM02                 
1 41886U 16078C   19068.40858096  .00000327  00000-0  18870-4 0  9993
2 41886  34.9591  71.3475 0015394 209.6238 150.3602 15.14827985123440
CYGFM01                 
1 41887U 16078D   19067.40905374  .00000315  00000-0  18611-4 0  9995
2 41887  34.9534  80.8666 0016607 198.9098 161.0997 15.14141452123250
CYGFM08                 
1 41888U 16078E   19068.38474952  .00000325  00000-0  18894-4 0  9991
2 41888  34.9505  72.5314 0015888 211.1967 148.7802 15.14547889123419
CYGFM06                 
1 41889U 16078F   19067.39626816  .00000335  00000-0  19308-4 0  9992
2 41889  34.9585  76.3075 0014247 200.9054 159.1076 15.14820378123297
CYGFM07                 
1 41890U 16078G   19067.44058171  .00000340  00000-0  19589-4 0  9990
2 41890  34.9523  75.3436 0014028 203.4426 156.5647 15.14821004123303
CYGFM03                 
1 41891U 16078H   19068.16040360  .00000318  00000-0  18445-4 0  9997
2 41891  34.9556  70.9939 0013531 209.1377 150.8580 15.14821724123419
FENGYUN 3D              
1 43010U 17072A   19068.80580601 -.00000029  00000-0  70436-5 0  9994
2 43010  98.7045   9.7193 0001852  21.7024 338.4236 14.19715408 68120
NOAA 20                 
1 43013U 17073A   19068.59353552  .00000003  00000-0  22162-4 0  9990
2 43013  98.7125   8.3339 0000867 104.0529 256.0743 14.19549667 67566
GOES 17                 
1 43226U 18022A   19068.65713981  .00000092  00000-0  00000+0 0  9994
2 43226   0.0390  30.0357 0003150 347.3616 249.0004  1.00271512  3795
FENGYUN 2H              
1 43491U 18050A   19068.10727837 -.00000135  00000-0  00000+0 0  9993
2 43491   1.7393 283.1042 0002019 243.0400 118.1042  1.00272054  2876
METOP-C                 
1 43689U 18087A   19068.76270361 -.00000044  00000-0  00000+0 0  9998
2 43689  98.7184 129.7323 0001356 247.4227 112.6807 14.21480252 17438
GEO-KOMPSAT-2A          
1 43823U 18100A   19068.08521524 -.00000350  00000-0  00000+0 0  9999
2 43823   0.0204 336.6328 0001591  75.9113 272.8712  1.00273074  1016
